IRIDIUM 166             
1 43570U 18061B   25007.17063111  .00000775  00000+0  26955-3 0  9997
2 43570  86.3963 276.5354 0001958  93.2742 266.8678 14.34214827338001
IRIDIUM 158             
1 43571U 18061C   25007.13891876  .00000773  00000+0  26885-3 0  9991
2 43571  86.3960 276.5584 0001820  83.6010 276.5393 14.34217420337972
IRIDIUM 165             
1 43572U 18061D   25006.81544904  .00000205  00000+0  66059-4 0  9991
2 43572  86.3969 276.7298 0002199  85.3528 274.7919 14.34212106337946
IRIDIUM 155             
1 43573U 18061E   25006.77738884  .00000186  00000+0  59457-4 0  9991
2 43573  86.3963 276.6411 0001804  88.9731 271.1672 14.34210990337906
IRIDIUM 154             
1 43574U 18061F   25006.82812928  .00000073  00000+0  18947-4 0  9994
2 43574  86.3967 276.7269 0002097  85.6554 274.4881 14.34214207337964
IRIDIUM 163             
1 43575U 18061G   25006.80910246  .00000338  00000+0  11347-3 0  9995
2 43575  86.3965 276.6674 0001989  81.1329 279.0092 14.34215477337934
IRIDIUM 156             
1 43576U 18061H   25006.78373384  .00000763  00000+0  26540-3 0  9992
2 43576  86.3962 276.6846 0001854  93.3823 266.7585 14.34216534337922
IRIDIUM 164             
1 43577U 18061J   25006.83447372  .00000308  00000+0  10277-3 0  9993
2 43577  86.3967 276.6956 0002291  83.5565 276.5892 14.34211487337977
